STARLINK-31810          
1 59799U 24093T   24154.91667824 -.00799291  00000+0 -57107-2 0  9996
2 59799  43.0004 283.2860 0001570 285.1985  98.9562 15.75047106  3707
STARLINK-31812          
1 59800U 24093U   24154.91667824 -.00783250  00000+0 -55550-2 0  9997
2 59800  43.0003 283.3025 0001503 284.8526  92.9204 15.75171128  3783
STARLINK-31815          
1 59801U 24093V   24154.91667824 -.00785664  00000+0 -55776-2 0  9999
2 59801  43.0004 283.2973 0001596 287.5226  92.3051 15.75154632  3702
STARLINK-31814          
1 59802U 24093W   24154.91667824 -.00792444  00000+0 -56454-2 0  9998
2 59802  43.0004 283.2919 0001582 287.8301  94.1859 15.75094060  3709
STARLINK-31794          
1 59803U 24093X   24154.91667824 -.00813303  00000+0 -58506-2 0  9997
2 59803  43.0003 283.2753 0001567 283.6096 104.8610 15.74930511  3762
STARLINK-31824          
1 59804U 24093Y   24154.91667824 -.00806845  00000+0 -57880-2 0  9995
2 59804  43.0005 283.2812 0001509 287.1892  99.1628 15.74976598  3658
2024-094A               
1 59805U 24094A   24155.22920942  .00015232  00000+0  64657-3 0  9996
2 59805  97.4726 226.0747 0008331 226.2820 133.7727 15.23149410  2146
2024-094B               
1 59806U 24094B   24155.15508503  .00015953  00000+0  64985-3 0  9998
2 59806  97.4721 226.0197 0011178 233.9024 126.1179 15.24506352  2123
2024-094C               
1 59807U 24094C   24155.15719269  .00015852  00000+0  65015-3 0  9995
2 59807  97.4735 226.0195 0011394 228.2726 131.7538 15.24274687  2127
2024-094D               
1 59808U 24094D   24155.16427539  .00014147  00000+0  62081-3 0  9999
2 59808  97.4718 226.0073 0007057 270.0517  89.9911 15.22044685  2128
2024-092K               
1 59809U 24092K   24155.21667486  .00031851  00000+0  20682-2 0  9992
2 59809  97.5989 267.2026 0012819 218.9749 228.7416 15.07907287  2082
2024-095A               
1 59810U 24095A   24155.19523236  .00007938  00000+0  47102-3 0  9994
2 59810  97.6019 230.4949 0010208 219.9449 140.1031 15.11568306  1970
2024-095B               
1 59811U 24095B   24155.19519405  .00003256  00000+0  19591-3 0  9998
2 59811  97.6022 230.4994 0009890 224.1852 135.8589 15.11514986  1970
2024-095C               
1 59812U 24095C   24155.19267281  .00012291  00000+0  72001-3 0  9995
2 59812  97.6010 230.4935 0009330 226.0805 133.9656 15.11913089  1972
2024-095D               
1 59813U 24095D   24155.19070335  .00012982  00000+0  75513-3 0  9996
2 59813  97.6012 230.4974 0008481 224.5911 135.4638 15.12161494  1978
STARLINK-31947          
1 59835U 24097A   24154.91667824 -.00773478  00000+0 -45459-2 0  9997
2 59835  43.0046 350.4752 0001590 290.3046 151.2149 15.79322425  2931
STARLINK-31929          
1 59836U 24097B   24155.16667824 -.00825605  00000+0 -49740-2 0  9993
2 59836  43.0047 348.9424 0001675 286.5485 139.8131 15.78915652  2919
STARLINK-31927          
1 59837U 24097C   24155.16667824 -.00833983  00000+0 -50339-2 0  9998
2 59837  43.0047 348.9374 0001718 284.9308 143.4090 15.78896076  2911
STARLINK-31855          
1 59838U 24097D   24154.91667824 -.00794820  00000+0 -46922-2 0  9990
2 59838  43.0049 350.4607 0001744 283.5557 163.8599 15.79278883  2888
STARLINK-31887          
1 59839U 24097E   24154.91667824 -.00802172  00000+0 -47432-2 0  9998
2 59839  43.0045 350.4553 0001530 289.9425 159.4258 15.79264838  2880
STARLINK-31925          
1 59840U 24097F   24155.16667824 -.00857787  00000+0 -52085-2 0  9990
2 59840  43.0046 348.9223 0001723 285.5053 148.8282 15.78827940  2913
STARLINK-31852          
1 59841U 24097G   24154.91667824 -.00820305  00000+0 -48693-2 0  9999
2 59841  43.0045 350.4450 0001746 277.8594 175.5765 15.79225080  2935
STARLINK-31906          
1 59842U 24097H   24155.16667824 -.00871166  00000+0 -53071-2 0  9995
2 59842  43.0045 348.9126 0001692 286.7179 151.4119 15.78791583  2960
STARLINK-31857          
1 59843U 24097J   24154.91667824 -.00833535  00000+0 -49648-2 0  9991
2 59843  43.0043 350.4348 0001481 279.8208 177.5634 15.79187163  2937
STARLINK-31851          
1 59844U 24097K   24155.16667824 -.00885358  00000+0 -54128-2 0  9999
2 59844  43.0044 348.9027 0001650 286.1526 155.7951 15.78751333  2965
STARLINK-31903          
1 59845U 24097L   24155.16667824 -.00894677  00000+0 -54846-2 0  9991
2 59845  43.0044 348.8972 0001682 286.9442 157.1069 15.78716325  2962
STARLINK-31922          
1 59846U 24097M   24154.91667824 -.00855664  00000+0 -51217-2 0  9996
2 59846  43.0043 350.4200 0001602 279.2507 183.9107 15.79136494  2889
STARLINK-31889          
1 59847U 24097N   24154.91667824 -.00863370  00000+0 -51786-2 0  9991
2 59847  43.0043 350.4150 0001542 290.2486 174.9376 15.79111710  2888
STARLINK-31859          
1 59848U 24097P   24154.91667824 -.00874108  00000+0 -52526-2 0  9996
2 59848  43.0041 350.4100 0001832 278.8235 188.2544 15.79097056  2889
STARLINK-31895          
1 59849U 24097Q   24155.16667824 -.00925847  00000+0 -57232-2 0  9991
2 59849  43.0041 348.8774 0001572 284.6585 167.1137 15.78617334  2916
STARLINK-31899          
1 59850U 24097R   24154.91667824 -.00886996  00000+0 -53515-2 0  9996
2 59850  43.0040 350.3997 0001530 291.0176 180.0465 15.79046090  2884
STARLINK-31896          
1 59851U 24097S   24154.91667824 -.00895763  00000+0 -54176-2 0  9993
2 59851  43.0040 350.3946 0001495 290.4915 182.6209 15.79016178  2937
STARLINK-31897          
1 59852U 24097T   24154.91667824 -.00905081  00000+0 -54850-2 0  9998
2 59852  43.0038 350.3896 0001412 285.1554 189.8524 15.78997493  2888
STARLINK-31892          
1 59853U 24097U   24154.91667824 -.00912210  00000+0 -55412-2 0  9996
2 59853  43.0039 350.3846 0001497 290.4503 186.6127 15.78964204  2889
STARLINK-31891          
1 59854U 24097V   24154.91667824 -.00919336  00000+0 -55933-2 0  9991
2 59854  43.0039 350.3799 0001583 291.2556 187.6433 15.78947708  2937
STARLINK-31882          
1 59855U 24097W   24154.91667824 -.00927715  00000+0 -56580-2 0  9991
2 59855  43.0040 350.3750 0001514 290.5052 190.3949 15.78917547  2935
STARLINK-31691          
1 59856U 24097X   24154.91667824 -.00936620  00000+0 -57251-2 0  9993
2 59856  43.0040 350.3700 0001507 277.3997 205.4330 15.78892372  2888
STARLINK-31569          
1 59857U 24097Y   24154.91667824 -.00943813  00000+0 -57814-2 0  9991
2 59857  43.0042 350.3652 0001501 290.1224 194.6524 15.78864883  2933
STARLINK-31654          
1 59858U 24098A   24155.16667824 -.00790736  00000+0 -41897-2 0  9999
2 59858  43.0068 358.4841 0001464 278.3440 194.2640 15.81600083  2802
STARLINK-31442          
1 59859U 24098B   24155.16667824  .00285072  00000+0  11453-2 0  9995
2 59859  43.0068 358.4577 0002779 282.7860 200.2992 15.84889860  2166
STARLINK-31651          
1 59860U 24098C   24155.16667824 -.00801091  00000+0 -42463-2 0  9999
2 59860  43.0067 358.4746 0001402 282.8735 193.4618 15.81617804  2116
STARLINK-31703          
1 59861U 24098D   24154.91667824 -.00778974  00000+0 -40424-2 0  9990
2 59861  43.0067   0.0021 0001809 287.9546 205.4739 15.82009801  2122
STARLINK-31584          
1 59862U 24098E   24154.91667824 -.00781611  00000+0 -40550-2 0  9993
2 59862  43.0066 359.9979 0001440 284.9104 210.1082 15.82025284  1966
STARLINK-31950          
1 59863U 24098F   24154.91667824 -.00791133  00000+0 -41078-2 0  9990
2 59863  43.0066 359.9922 0001592 282.5017 214.7917 15.82030001  2129
STARLINK-31931          
1 59864U 24098G   24154.91667824 -.00797013  00000+0 -41398-2 0  9999
2 59864  43.0067 359.9869 0001575 288.8278 210.5072 15.82037209  2123
STARLINK-31938          
1 59865U 24098H   24154.91667824 -.00800934  00000+0 -41619-2 0  9993
2 59865  43.0065 359.9815 0001550 287.3632 214.2006 15.82038330  2780
STARLINK-31941          
1 59866U 24098J   24154.91667824 -.00805782  00000+0 -41866-2 0  9994
2 59866  43.0066 359.9772 0001485 287.0638 216.1384 15.82053429  2128
STARLINK-31952          
1 59867U 24098K   24154.91667824 -.00819510  00000+0 -42636-2 0  9995
2 59867  43.0066 359.9715 0001495 287.2455 218.2115 15.82059254  2123
STARLINK-31921          
1 59868U 24098L   24155.16667824  .00554877  13656-3  12336-2 0  9993
2 59868  43.0054 358.0473 0005129 274.0507  11.7926 15.97052732  2162
STARLINK-31760          
1 59869U 24098M   24154.91667824 -.00836075  00000+0 -43567-2 0  9996
2 59869  43.0066 359.9605 0001481 287.5889 222.1869 15.82066955  2128
STARLINK-31945          
1 59870U 24098N   24154.91667824 -.00845429  00000+0 -44093-2 0  9996
2 59870  43.0065 359.9551 0001536 284.6455 227.2641 15.82071203  2123
STARLINK-31937          
1 59871U 24098P   24154.91667824 -.00852732  00000+0 -44505-2 0  9990
2 59871  43.0065 359.9497 0001576 288.4877 225.5383 15.82074244  2129
STARLINK-31944          
1 59872U 24098Q   24154.91667824 -.00860946  00000+0 -44975-2 0  9998
2 59872  43.0064 359.9443 0001493 288.5286 227.6619 15.82076104  2079
STARLINK-31940          
1 59873U 24098R   24154.91667824 -.00868571  00000+0 -45389-2 0  9991
2 59873  43.0063 359.9397 0001659 280.3280 237.6870 15.82086244  1968
STARLINK-31933          
1 59874U 24098S   24154.91667824 -.00876160  00000+0 -45833-2 0  9999
2 59874  43.0062 359.9337 0001483 288.3135 231.9305 15.82085032  2127
STARLINK-31936          
1 59875U 24098T   24155.16667824 -.00914573  00000+0 -49068-2 0  9993
2 59875  43.0061 358.3961 0001470 280.5648 226.7005 15.81645533  2162
STARLINK-31935          
1 59876U 24098U   24155.16667824 -.00925184  00000+0 -49716-2 0  9994
2 59876  43.0060 358.3903 0001609 270.9424 238.6185 15.81637405  2167
STARLINK-31934          
1 59877U 24098V   24155.16667824 -.00930759  00000+0 -50046-2 0  9997
2 59877  43.0060 358.3856 0001474 281.6719 229.7669 15.81640039  2166
STARLINK-31943          
1 59878U 24098W   24155.16667824 -.00940982  00000+0 -50680-2 0  9991
2 59878  43.0061 358.3798 0001600 277.0355 236.7196 15.81629425  2168
